{"type": "FeatureCollection", "features": [ {"type": "Feature", "properties": {"norad_id": 36686, "name": "FENGYUN 1C DEB", "group": "fengyun-1c-debris", "lat": 80.74428482404615, "lon": 79.36551897708708, "alt_km": 584.4013845125091, "timestamp": "2025-12-16T21:38:57.463286+00:00", "meta": {"OBJECT_NAME": "FENGYUN 1C DEB", "OBJECT_ID": "1999-025DZG", "EPOCH": "2025-12-15T19:13:56.169984", "MEAN_MOTION": 14.77248655, "ECCENTRICITY": 0.0105012, "INCLINATION": 99.0012, "RA_OF_ASC_NODE": 181.5592, "ARG_OF_PERICENTER": 43.8778, "MEAN_ANOMALY": 317.071, "EPHEMERIS_TYPE": 0, "CLASSIFICATION_TYPE": "U", "NORAD_CAT_ID": 36686, "ELEMENT_SET_NO": 999, "REV_AT_EPOCH": 65897, "BSTAR": 0.00049760395, "MEAN_MOTION_DOT": 3.796e-05, "MEAN_MOTION_DDOT": 0}, "tle": {"line1": "1 36686U 99025DZG 25349.80134456  .00003796  00000+0  49760-3 0  9991", "line2": "2 36686  99.0012 181.5592 0105012  43.8778 317.0710 14.77248655658972"}}, "geometry": {"type": "Point", "coordinates": [79.36551897708708, 80.74428482404615]}}, {"type": "Feature", "properties": {"norad_id": 36687, "name": "FENGYUN 1C DEB", "group": "fengyun-1c-debris", "lat": -60.38608627592384, "lon": -118.48822981829719, "alt_km": 821.1661357356279, "timestamp": "2025-12-16T21:38:57.463296+00:00", "meta": {"OBJECT_NAME": "FENGYUN 1C DEB", "OBJECT_ID": "1999-025DZH", "EPOCH": "2025-12-09T12:23:51.138240", "MEAN_MOTION": 14.04528107, "ECCENTRICITY": 0.00903007, "INCLINATION": 98.7162, "RA_OF_ASC_NODE": 70.0789, "ARG_OF_PERICENTER": 274.4984, "MEAN_ANOMALY": 84.5872, "EPHEMERIS_TYPE": 0, "CLASSIFICATION_TYPE": "U", "NORAD_CAT_ID": 36687, "ELEMENT_SET_NO": 999, "REV_AT_EPOCH": 62677, "BSTAR": 0.00041265981, "MEAN_MOTION_DOT": 6.4e-06, "MEAN_MOTION_DDOT": 0}, "tle": {"line1": "1 36687U 99025DZH 25343.51656410  .00000640  00000+0  41266-3 0  9991", "line2": "2 36687  98.7162  70.0789 0090300 274.4984  84.5872 14.04528107626770"}}, "geometry": {"type": "Point", "coordinates": [-118.48822981829719, -60.38608627592384]}}, {"type": "Feature", "properties": {"norad_id": 36689, "name": "FENGYUN 1C DEB", "group": "fengyun-1c-debris", "lat": -50.243149326656585, "lon": -105.38565298170901, "alt_km": 779.4213350064874, "timestamp": "2025-12-16T21:38:57.463307+00:00", "meta": {"OBJECT_NAME": "FENGYUN 1C DEB", "OBJECT_ID": "1999-025DZK", "EPOCH": "2025-11-28T10:04:14.213280", "MEAN_MOTION": 13.74189275, "ECCENTRICITY": 0.03131537, "INCLINATION": 98.4796, "RA_OF_ASC_NODE": 227.8431, "ARG_OF_PERICENTER": 334.7216, "MEAN_ANOMALY": 23.8887, "EPHEMERIS_TYPE": 0, "CLASSIFICATION_TYPE": "U", "NORAD_CAT_ID": 36689, "ELEMENT_SET_NO": 999, "REV_AT_EPOCH": 58016, "BSTAR": 0.0027905602, "MEAN_MOTION_DOT": 3.71e-05, "MEAN_MOTION_DDOT": 0}, "tle": {"line1": "1 36689U 99025DZK 25332.41960895  .00003710  00000+0  27906-2 0  9990", "line2": "2 36689  98.4796 227.8431 0313153 334.7216  23.8887 13.74189275580169"}}, "geometry": {"type": "Point", "coordinates": [-105.38565298170901, -50.243149326656585]}}, {"type": "Feature", "properties": {"norad_id": 36691, "name": "FENGYUN 1C DEB", "group": "fengyun-1c-debris", "lat": -81.06693406495225, "lon": 95.6019077593879, "alt_km": 808.4397459938273, "timestamp": "2025-12-16T21:38:57.463317+00:00", "meta": {"OBJECT_NAME": "FENGYUN 1C DEB", "OBJECT_ID": "1999-025DZM", "EPOCH": "2025-12-08T17:50:07.073952", "MEAN_MOTION": 14.07105067, "ECCENTRICITY": 0.01290803, "INCLINATION": 98.6374, "RA_OF_ASC_NODE": 343.0423, "ARG_OF_PERICENTER": 246.8073, "MEAN_ANOMALY": 111.9457, "EPHEMERIS_TYPE": 0, "CLASSIFICATION_TYPE": "U", "NORAD_CAT_ID": 36691, "ELEMENT_SET_NO": 999, "REV_AT_EPOCH": 59553, "BSTAR": 0.0032098608, "MEAN_MOTION_DOT": 5.753e-05, "MEAN_MOTION_DDOT": 0}, "tle": {"line1": "1 36691U 99025DZM 25342.74313743  .00005753  00000+0  32099-2 0  9992", "line2": "2 36691  98.6374 343.0423 0129080 246.8073 111.9457 14.07105067595539"}}, "geometry": {"type": "Point", "coordinates": [95.6019077593879, -81.06693406495225]}}, {"type": "Feature", "properties": {"norad_id": 36692, "name": "FENGYUN 1C DEB", "group": "fengyun-1c-debris", "lat": 63.87271797629236, "lon": -123.76777529592658, "alt_km": 871.8154395927522, "timestamp": "2025-12-16T21:38:57.463327+00:00", "meta": {"OBJECT_NAME": "FENGYUN 1C DEB", "OBJECT_ID": "1999-025DZN", "EPOCH": "2025-12-04T12:56:52.897632", "MEAN_MOTION": 13.93448865, "ECCENTRICITY": 0.0115856, "INCLINATION": 99.9932, "RA_OF_ASC_NODE": 243.9547, "ARG_OF_PERICENTER": 34.8482, "MEAN_ANOMALY": 326.0192, "EPHEMERIS_TYPE": 0, "CLASSIFICATION_TYPE": "U", "NORAD_CAT_ID": 36692, "ELEMENT_SET_NO": 999, "REV_AT_EPOCH": 59691, "BSTAR": 0.0009556, "MEAN_MOTION_DOT": 1.272e-05, "MEAN_MOTION_DDOT": 0}, "tle": {"line1": "1 36692U 99025DZN 25338.53950113  .00001272  00000+0  95560-3 0  9998", "line2": "2 36692  99.9932 243.9547 0115856  34.8482 326.0192 13.93448865596912"}}, "geometry": {"type": "Point", "coordinates": [-123.76777529592658, 63.87271797629236]}}, {"type": "Feature", "properties": {"norad_id": 36695, "name": "FENGYUN 1C DEB", "group": "fengyun-1c-debris", "lat": -26.61121659881816, "lon": -23.744304211650526, "alt_km": 899.6265769325701, "timestamp": "2025-12-16T21:38:57.463337+00:00", "meta": {"OBJECT_NAME": "FENGYUN 1C DEB", "OBJECT_ID": "1999-025DZR", "EPOCH": "2025-12-14T04:54:28.101024", "MEAN_MOTION": 14.43749357, "ECCENTRICITY": 0.02574906, "INCLINATION": 98.2215, "RA_OF_ASC_NODE": 329.4928, "ARG_OF_PERICENTER": 125.9312, "MEAN_ANOMALY": 236.6068, "EPHEMERIS_TYPE": 0, "CLASSIFICATION_TYPE": "U", "NORAD_CAT_ID": 36695, "ELEMENT_SET_NO": 999, "REV_AT_EPOCH": 89589, "BSTAR": 0.00021662776, "MEAN_MOTION_DOT": 1.052e-05, "MEAN_MOTION_DDOT": 0}, "tle": {"line1": "1 36695U 99025DZR 25348.20449191  .00001052  00000+0  21663-3 0  9994", "line2": "2 36695  98.2215 329.4928 0257490 125.9312 236.6068 14.43749357895892"}}, "geometry": {"type": "Point", "coordinates": [-23.744304211650526, -26.61121659881816]}}, {"type": "Feature", "properties": {"norad_id": 36696, "name": "FENGYUN 1C DEB", "group": "fengyun-1c-debris", "lat": 23.751421139930713, "lon": -175.91085313794713, "alt_km": 775.7506980923899, "timestamp": "2025-12-16T21:38:57.463346+00:00", "meta": {"OBJECT_NAME": "FENGYUN 1C DEB", "OBJECT_ID": "1999-025DZS", "EPOCH": "2025-12-12T23:29:27.613248", "MEAN_MOTION": 14.39206881, "ECCENTRICITY": 0.00228959, "INCLINATION": 98.9916, "RA_OF_ASC_NODE": 355.9822, "ARG_OF_PERICENTER": 328.4138, "MEAN_ANOMALY": 31.5673, "EPHEMERIS_TYPE": 0, "CLASSIFICATION_TYPE": "U", "NORAD_CAT_ID": 36696, "ELEMENT_SET_NO": 999, "REV_AT_EPOCH": 64399, "BSTAR": 0.0029501232, "MEAN_MOTION_DOT": 9.135e-05, "MEAN_MOTION_DDOT": 0}, "tle": {"line1": "1 36696U 99025DZS 25346.97879182  .00009135  00000+0  29501-2 0  9992", "line2": "2 36696  98.9916 355.9822 0022895 328.4138  31.5673 14.39206881643991"}}, "geometry": {"type": "Point", "coordinates": [-175.91085313794713, 23.751421139930713]}}, {"type": "Feature", "properties": {"norad_id": 36699, "name": "FENGYUN 1C DEB", "group": "fengyun-1c-debris", "lat": -33.058707275139255, "lon": -9.077762802039869, "alt_km": 876.6187863055775, "timestamp": "2025-12-16T21:38:57.463356+00:00", "meta": {"OBJECT_NAME": "FENGYUN 1C DEB", "OBJECT_ID": "1999-025DZV", "EPOCH": "2025-12-15T05:20:38.452128", "MEAN_MOTION": 14.24296403, "ECCENTRICITY": 0.00947132, "INCLINATION": 98.5591, "RA_OF_ASC_NODE": 343.661, "ARG_OF_PERICENTER": 122.958, "MEAN_ANOMALY": 238.075, "EPHEMERIS_TYPE": 0, "CLASSIFICATION_TYPE": "U", "NORAD_CAT_ID": 36699, "ELEMENT_SET_NO": 999, "REV_AT_EPOCH": 73362, "BSTAR": 0.00025043284, "MEAN_MOTION_DOT": 5.64e-06, "MEAN_MOTION_DDOT": 0}, "tle": {"line1": "1 36699U 99025DZV 25349.22266727  .00000564  00000+0  25043-3 0  9996", "line2": "2 36699  98.5591 343.6610 0094713 122.9580 238.0750 14.24296403733627"}}, "geometry": {"type": "Point", "coordinates": [-9.077762802039869, -33.058707275139255]}}, {"type": "Feature", "properties": {"norad_id": 36701, "name": "FENGYUN 1C DEB", "group": "fengyun-1c-debris", "lat": -30.017249383425817, "lon": 119.08041607563014, "alt_km": 839.0725378471861, "timestamp": "2025-12-16T21:38:57.463366+00:00", "meta": {"OBJECT_NAME": "FENGYUN 1C DEB", "OBJECT_ID": "1999-025DZX", "EPOCH": "2025-12-15T14:50:17.265696", "MEAN_MOTION": 13.71344012, "ECCENTRICITY": 0.02593319, "INCLINATION": 102.7453, "RA_OF_ASC_NODE": 304.8947, "ARG_OF_PERICENTER": 246.9357, "MEAN_ANOMALY": 110.4244, "EPHEMERIS_TYPE": 0, "CLASSIFICATION_TYPE": "U", "NORAD_CAT_ID": 36701, "ELEMENT_SET_NO": 999, "REV_AT_EPOCH": 61178, "BSTAR": 0.0015731303, "MEAN_MOTION_DOT": 1.723e-05, "MEAN_MOTION_DDOT": 0}, "tle": {"line1": "1 36701U 99025DZX 25349.61825539  .00001723  00000+0  15731-2 0  9995", "line2": "2 36701 102.7453 304.8947 0259331 246.9357 110.4244 13.71344012611780"}}, "geometry": {"type": "Point", "coordinates": [119.08041607563014, -30.017249383425817]}}, {"type": "Feature", "properties": {"norad_id": 36707, "name": "FENGYUN 1C DEB", "group": "fengyun-1c-debris", "lat": 68.47620829091548, "lon": -120.05553396357337, "alt_km": 791.8050838698309, "timestamp": "2025-12-16T21:38:57.463376+00:00", "meta": {"OBJECT_NAME": "FENGYUN 1C DEB", "OBJECT_ID": "1999-025EAD", "EPOCH": "2025-12-15T21:24:57.607488", "MEAN_MOTION": 14.17320288, "ECCENTRICITY": 0.00498055, "INCLINATION": 98.7526, "RA_OF_ASC_NODE": 35.9569, "ARG_OF_PERICENTER": 113.0035, "MEAN_ANOMALY": 247.6404, "EPHEMERIS_TYPE": 0, "CLASSIFICATION_TYPE": "U", "NORAD_CAT_ID": 36707, "ELEMENT_SET_NO": 999, "REV_AT_EPOCH": 64124, "BSTAR": 0.00062545572, "MEAN_MOTION_DOT": 1.237e-05, "MEAN_MOTION_DDOT": 0}, "tle": {"line1": "1 36707U 99025EAD 25349.89233342  .00001237  00000+0  62546-3 0  9993", "line2": "2 36707  98.7526  35.9569 0049805 113.0035 247.6404 14.17320288641248"}}, "geometry": {"type": "Point", "coordinates": [-120.05553396357337, 68.47620829091548]}}]}